{"type": "FeatureCollection", "metadata": {"origen": "Reconstruccion WGS84 desde el prototipo v32 (transformacion afin calibrada, ~4 cm RMS)."}, "features": [{"type": "Feature", "properties": {"layer": "limite_campus", "feature_id": "CAMPUS", "feature_index": 1}, "geometry": {"type": "Polygon", "coordinates": [[[-77.083216761, -12.073020086], [-77.082868633, -12.072321009], [-77.082881506, -12.072037038], [-77.082162319, -12.069876503], [-77.082019019, -12.069741751], [-77.081960234, -12.069596148], [-77.081993314, -12.069375483], [-77.081760031, -12.068293861], [-77.081665454, -12.067327998], [-77.081705911, -12.066473374], [-77.081886926, -12.065410748], [-77.081493761, -12.065285037], [-77.081312788, -12.065378184], [-77.081253069, -12.065584379], [-77.081367883, -12.065903621], [-77.081344909, -12.066088111], [-77.081192411, -12.066244564], [-77.080937032, -12.066278927], [-77.080713813, -12.066152313], [-77.080621039, -12.06599224], [-77.080574204, -12.065636824], [-77.080725805, -12.065001058], [-77.080682635, -12.064871733], [-77.078631374, -12.064349891], [-77.078457753, -12.064376115], [-77.078324544, -12.064576882], [-77.078077371, -12.066032002], [-77.078039693, -12.066373851], [-77.078080105, -12.066549298], [-77.078068146, -12.066939079], [-77.078016687, -12.067298111], [-77.077934922, -12.067473557], [-77.077922018, -12.068467453], [-77.077934866, -12.068762276], [-77.078054272, -12.069108649], [-77.077971579, -12.069494812], [-77.078050552, -12.070147764], [-77.078295778, -12.071225769], [-77.078424374, -12.071486228], [-77.078410578, -12.071852495], [-77.078495061, -12.072559709], [-77.078485861, -12.072863576], [-77.078524436, -12.073040831], [-77.078644769, -12.073200905], [-77.078657619, -12.073440562], [-77.078766925, -12.07365942], [-77.079010345, -12.074016646], [-77.079126086, -12.074140546], [-77.079194063, -12.074155921], [-77.079906929, -12.073816792], [-77.080124649, -12.073671192], [-77.080411258, -12.073710988], [-77.080759417, -12.07368567], [-77.080972541, -12.073592523], [-77.081207706, -12.073641361], [-77.081576077, -12.073578964], [-77.082780408, -12.073181058], [-77.083081717, -12.073159357], [-77.083189198, -12.073102383], [-77.083216761, -12.073020086]]]}}, {"type": "Feature", "properties": {"layer": "veredas_riesgo", "feature_id": "VD-2", "nombre": "Vereda en riesgo", "detalle": "Zona de vereda en riesgo (id 2 en la capa del cliente)", "area_m2": 10658.8, "feature_index": 1}, "geometry": {"type": "MultiPolygon", "coordinates": [[[[-77.078413465, -12.068830109], [-77.078388665, -12.06877223], [-77.078306907, -12.068788507], [-77.078152578, -12.068802071], [-77.078157169, -12.068858142], [-77.078181053, -12.068856333], [-77.078181053, -12.068849098], [-77.078413465, -12.068830109]]], [[[-77.082315583, -12.073238028], [-77.082216384, -12.072955865], [-77.082195256, -12.072945012], [-77.082164026, -12.07285548], [-77.082116259, -12.072843722], [-77.08210799, -12.072860001], [-77.082116258, -12.072864523], [-77.082112583, -12.072872662], [-77.082002354, -12.072740623], [-77.081983983, -12.072706257], [-77.081752525, -12.071895944], [-77.081724968, -12.071867004], [-77.081713027, -12.071830829], [-77.081625757, -12.071856151], [-77.081623002, -12.071845298], [-77.081600036, -12.071851628], [-77.081602791, -12.071862481], [-77.08144203, -12.071907697], [-77.081439275, -12.071898654], [-77.081416309, -12.071905888], [-77.081419064, -12.071914027], [-77.081402529, -12.071919453], [-77.081399774, -12.07191041], [-77.081376808, -12.07191674], [-77.081379563, -12.071925784], [-77.081371296, -12.071927592], [-77.081369458, -12.071923071], [-77.081352923, -12.071927592], [-77.081353841, -12.071933018], [-77.081345574, -12.071934827], [-77.081343737, -12.071926688], [-77.081312503, -12.071935731], [-77.081315259, -12.07194387], [-77.081295968, -12.071949296], [-77.081293212, -12.071941157], [-77.081270246, -12.071947487], [-77.081273002, -12.071956531], [-77.081031401, -12.072030686], [-77.081013946, -12.072050582], [-77.080797148, -12.072122928], [-77.080669458, -12.072150962], [-77.080665784, -12.072133779], [-77.080630876, -12.072141014], [-77.080527092, -12.071693352], [-77.080341528, -12.071733142], [-77.080354386, -12.071791926], [-77.080257011, -12.071812725], [-77.080242316, -12.071753941], [-77.080206489, -12.071762984], [-77.080213837, -12.071796446], [-77.080147695, -12.071810915], [-77.080121979, -12.071693347], [-77.080024615, -12.071452785], [-77.079976857, -12.07123212], [-77.079903389, -12.070733814], [-77.079862988, -12.070298814], [-77.079886872, -12.070297006], [-77.079892383, -12.070327754], [-77.079899732, -12.07032685], [-77.079898814, -12.070295197], [-77.080820196, -12.070213815], [-77.080821115, -12.070222859], [-77.080844999, -12.07022105], [-77.080844081, -12.070212007], [-77.081126099, -12.070185784], [-77.081127017, -12.070194827], [-77.081150901, -12.070193019], [-77.081149983, -12.070183975], [-77.08121888, -12.070177645], [-77.081219798, -12.070186689], [-77.081243683, -12.070183976], [-77.081242764, -12.070174933], [-77.081551423, -12.070147805], [-77.081551422, -12.070156849], [-77.081575307, -12.070154136], [-77.081574388, -12.070145092], [-77.081750765, -12.07012972], [-77.081766381, -12.070124294], [-77.081598296, -12.069618753], [-77.081485322, -12.069226257], [-77.081414601, -12.068930529], [-77.081398984, -12.068933242], [-77.081322741, -12.068883501], [-77.081310799, -12.068868127], [-77.080704509, -12.068864502], [-77.080326036, -12.068869924], [-77.080172629, -12.06880933], [-77.080098221, -12.068785815], [-77.080100977, -12.068776772], [-77.080078012, -12.068769537], [-77.080075256, -12.06877858], [-77.07996686, -12.068745117], [-77.079969616, -12.068736978], [-77.079946651, -12.068729743], [-77.079943895, -12.068737882], [-77.07983458, -12.068705324], [-77.079837336, -12.06869628], [-77.07981529, -12.068689045], [-77.079812533, -12.068698089], [-77.079715161, -12.068668243], [-77.079757482, -12.067180564], [-77.079714307, -12.067173329], [-77.079709705, -12.067367767], [-77.079700519, -12.067367767], [-77.079699599, -12.067391281], [-77.079708786, -12.067391281], [-77.079698664, -12.067782871], [-77.079689478, -12.067781966], [-77.079688558, -12.067805479], [-77.079697744, -12.067806384], [-77.079693143, -12.067990874], [-77.079683957, -12.067990874], [-77.079683037, -12.068014388], [-77.079692223, -12.068014388], [-77.079686704, -12.068199782], [-77.079677517, -12.068198878], [-77.079677516, -12.068222391], [-77.079686703, -12.068223296], [-77.079681183, -12.068409595], [-77.079671997, -12.068409595], [-77.079671077, -12.068433108], [-77.079680263, -12.068433108], [-77.079679342, -12.068492796], [-77.079622387, -12.068497318], [-77.07962606, -12.068536205], [-77.07965913, -12.068533493], [-77.079658212, -12.068538919], [-77.079677503, -12.06853711], [-77.079674742, -12.068654678], [-77.079653613, -12.06867186], [-77.079356896, -12.068698988], [-77.079350471, -12.068584133], [-77.079296272, -12.068592272], [-77.079288007, -12.068543436], [-77.079231971, -12.068538914], [-77.079226458, -12.068564236], [-77.079197062, -12.068562427], [-77.079185113, -12.06871436], [-77.078581576, -12.068769519], [-77.078580664, -12.068625725], [-77.078598117, -12.068625725], [-77.078606389, -12.068526245], [-77.078282117, -12.068500015], [-77.078262826, -12.068503632], [-77.078334474, -12.0686004], [-77.078349172, -12.068590452], [-77.078410716, -12.06867275], [-77.078396937, -12.068683602], [-77.078453888, -12.068764996], [-77.078475931, -12.068841867], [-77.078484198, -12.068854528], [-77.078503489, -12.068864476], [-77.078535641, -12.068863572], [-77.078533804, -12.068842772], [-77.078548502, -12.068841868], [-77.078550339, -12.068860859], [-77.078580654, -12.068859051], [-77.078616463, -12.069242502], [-77.078609114, -12.069242502], [-77.078610032, -12.069255163], [-77.078597171, -12.069256067], [-77.078596248, -12.069360973], [-77.078578794, -12.069361878], [-77.078577875, -12.069389009], [-77.079406475, -12.06931486], [-77.079407393, -12.069326617], [-77.079418417, -12.069325713], [-77.07941658, -12.069311243], [-77.079500175, -12.069304009], [-77.079502012, -12.069317575], [-77.079700435, -12.06929949], [-77.07972983, -12.069321195], [-77.079744521, -12.06947765], [-77.079735335, -12.069478554], [-77.07973809, -12.069502068], [-77.079747276, -12.069501163], [-77.079763804, -12.069680228], [-77.079754617, -12.069681132], [-77.079756454, -12.069704646], [-77.07976564, -12.069703741], [-77.079783086, -12.069892754], [-77.079773899, -12.069893658], [-77.079776654, -12.069917171], [-77.07978584, -12.069916267], [-77.079802368, -12.070099853], [-77.0797941, -12.070100758], [-77.079795936, -12.070124271], [-77.079805122, -12.070123367], [-77.079827159, -12.070362119], [-77.079817973, -12.070363024], [-77.079819809, -12.070385633], [-77.079828995, -12.070385633], [-77.079843687, -12.070538471], [-77.0798345, -12.070539375], [-77.079836337, -12.070562888], [-77.079845523, -12.070561984], [-77.079862969, -12.07074557], [-77.079888683, -12.070918304], [-77.079879496, -12.070920113], [-77.079882251, -12.070943626], [-77.079891437, -12.070941818], [-77.079917151, -12.071114552], [-77.079907965, -12.07111636], [-77.079911639, -12.071138969], [-77.079920825, -12.071138065], [-77.079935519, -12.071233928], [-77.079923576, -12.071252015], [-77.079644311, -12.071320744], [-77.079560716, -12.071330691], [-77.079556124, -12.071305368], [-77.079504681, -12.071312603], [-77.079507436, -12.071341542], [-77.079141822, -12.071389469], [-77.078882768, -12.071445537], [-77.078866236, -12.071367761], [-77.078846026, -12.071371379], [-77.078825816, -12.071376804], [-77.078849696, -12.07148352], [-77.07914917, -12.071418409], [-77.079151925, -12.07143107], [-77.079319116, -12.071394898], [-77.079625019, -12.071351492], [-77.079807827, -12.071308084], [-77.079826199, -12.071320746], [-77.079844571, -12.071317128], [-77.079855596, -12.071296328], [-77.079943784, -12.071274624], [-77.07995205, -12.071313512], [-77.079943783, -12.071315321], [-77.079948375, -12.071336121], [-77.079956643, -12.071334313], [-77.079995217, -12.071510664], [-77.079995215, -12.071561309], [-77.080019099, -12.071560404], [-77.080023686, -12.071698772], [-77.080042977, -12.071696059], [-77.080041141, -12.071686111], [-77.080046652, -12.071684303], [-77.080095329, -12.071922151], [-77.079976813, -12.072227825], [-77.07995201, -12.072231442], [-77.080008036, -12.072475621], [-77.080180738, -12.072451205], [-77.08015594, -12.072333638], [-77.080126544, -12.072339968], [-77.080081541, -12.072132868], [-77.080226695, -12.071850708], [-77.080439808, -12.072018922], [-77.080556465, -12.072201605], [-77.080656595, -12.072197085], [-77.080906464, -12.07211479], [-77.080989141, -12.072101226], [-77.081044259, -12.072083139], [-77.081092029, -12.072038826], [-77.081675362, -12.071869717], [-77.081744256, -12.071934832], [-77.081761707, -12.071996329], [-77.081753439, -12.071999042], [-77.081759869, -12.072021651], [-77.081769055, -12.072018938], [-77.08180212, -12.072136506], [-77.081792934, -12.072138314], [-77.081799363, -12.072160923], [-77.08180855, -12.072159115], [-77.081973877, -12.072735197], [-77.082085943, -12.072869949], [-77.08208135, -12.072873566], [-77.082093291, -12.072886227], [-77.082072162, -12.07290341], [-77.082085941, -12.072920593], [-77.082096046, -12.072912454], [-77.082102476, -12.072919689], [-77.082094208, -12.072926019], [-77.08211258, -12.072949533], [-77.082121766, -12.072945916], [-77.082134625, -12.072982995], [-77.082146567, -12.072978473], [-77.082141056, -12.072964003], [-77.082163103, -12.072956768], [-77.082178718, -12.073001987], [-77.082198009, -12.072995656], [-77.082211787, -12.073032736], [-77.082224648, -12.073029118], [-77.082299966, -12.073243454], [-77.082315583, -12.073238028]], [[-77.08174158, -12.070103494], [-77.080141333, -12.070246364], [-77.080140415, -12.070233703], [-77.080122961, -12.070235512], [-77.080123879, -12.070248173], [-77.079860233, -12.070271683], [-77.079715158, -12.068717079], [-77.07972067, -12.068717079], [-77.079718833, -12.068711653], [-77.079726183, -12.068699896], [-77.080152418, -12.068831034], [-77.080340732, -12.068901577], [-77.080704507, -12.068891633], [-77.081306205, -12.068895258], [-77.081404495, -12.068959469], [-77.081444907, -12.069131298], [-77.08142194, -12.069162047], [-77.081441228, -12.069237109], [-77.081460519, -12.069232587], [-77.081466948, -12.069255197], [-77.081475216, -12.069253388], [-77.081515629, -12.0694008], [-77.081506443, -12.069402608], [-77.081512872, -12.069425218], [-77.081522058, -12.069423409], [-77.081538591, -12.069480384], [-77.081527565, -12.069546403], [-77.081552364, -12.069627796], [-77.081580842, -12.069618752], [-77.081683714, -12.069929855], [-77.081674528, -12.069932568], [-77.081681876, -12.069955177], [-77.081691062, -12.06995156], [-77.08174158, -12.070103494]], [[-77.079696771, -12.069058929], [-77.079698607, -12.069087868], [-77.079707793, -12.069086964], [-77.079721567, -12.069228045], [-77.079709624, -12.06924161], [-77.079679309, -12.069258793], [-77.078663308, -12.069350122], [-77.078612808, -12.068807503], [-77.079672902, -12.068710748], [-77.079705957, -12.069058024], [-77.079696771, -12.069058929]], [[-77.080342441, -12.071862466], [-77.080355302, -12.071858849], [-77.080368162, -12.071866084], [-77.080371836, -12.071878745], [-77.080365405, -12.071890502], [-77.080352545, -12.071894119], [-77.080339684, -12.071887788], [-77.08033601, -12.071875127], [-77.080342441, -12.071862466]], [[-77.080373678, -12.071785595], [-77.080364492, -12.071777456], [-77.080362655, -12.071764795], [-77.080370923, -12.071754847], [-77.080383784, -12.071753943], [-77.080394807, -12.071762987], [-77.080394806, -12.071774743], [-77.080386538, -12.071784691], [-77.080373678, -12.071785595]], [[-77.080367241, -12.071928485], [-77.080376427, -12.071929389], [-77.080375508, -12.071939337], [-77.080366322, -12.071938433], [-77.080367241, -12.071928485]], [[-77.080398481, -12.071767508], [-77.080512391, -12.071743092], [-77.080522494, -12.07178831], [-77.080408584, -12.071812727], [-77.080398481, -12.071767508]], [[-77.080405828, -12.071819057], [-77.08041777, -12.071814536], [-77.080429712, -12.071819058], [-77.080434305, -12.071830814], [-77.080429711, -12.071841667], [-77.080418687, -12.071847093], [-77.080407664, -12.071842571], [-77.080402153, -12.071831718], [-77.080405828, -12.071819057]], [[-77.080413172, -12.071942051], [-77.080421439, -12.07193572], [-77.080433381, -12.071937529], [-77.080439811, -12.071946573], [-77.080437974, -12.071957425], [-77.080428787, -12.071963756], [-77.080417764, -12.071962851], [-77.080411334, -12.071953808], [-77.080413172, -12.071942051]], [[-77.080437064, -12.071754848], [-77.080425122, -12.0717449], [-77.080427878, -12.07173676], [-77.080435228, -12.071733143], [-77.080444414, -12.071735856], [-77.080447169, -12.071743996], [-77.080437064, -12.071754848]], [[-77.080525236, -12.072122925], [-77.080513293, -12.07213016], [-77.08047104, -12.07205148], [-77.080477471, -12.072047862], [-77.080525236, -12.072122925]], [[-77.080497694, -12.071734952], [-77.080494019, -12.071743092], [-77.08048667, -12.071745805], [-77.080475647, -12.071734952], [-77.080485752, -12.0717241], [-77.08049402, -12.071726813], [-77.080497694, -12.071734952]], [[-77.080494005, -12.072074993], [-77.080499517, -12.072062332], [-77.080511459, -12.072066854], [-77.080505946, -12.072079515], [-77.080494005, -12.072074993]], [[-77.080494935, -12.071814536], [-77.080501365, -12.071803684], [-77.080513307, -12.071810919], [-77.080505958, -12.071821772], [-77.080494935, -12.071814536]], [[-77.08050044, -12.071954713], [-77.080502278, -12.071943861], [-77.080511464, -12.07193753], [-77.080523406, -12.071939339], [-77.080528918, -12.071948383], [-77.08052708, -12.07196014], [-77.080517894, -12.071965566], [-77.08050687, -12.071963757], [-77.08050044, -12.071954713]], [[-77.080529832, -12.072044245], [-77.080519727, -12.07205148], [-77.080512378, -12.072041532], [-77.080522484, -12.072034297], [-77.080529832, -12.072044245]], [[-77.080606073, -12.072153674], [-77.080620771, -12.072150057], [-77.080625363, -12.072171762], [-77.080610665, -12.072174475], [-77.080606073, -12.072153674]], [[-77.08063455, -12.072169953], [-77.080629958, -12.072148249], [-77.080647412, -12.072144631], [-77.080652004, -12.072166336], [-77.08063455, -12.072169953]]], [[[-77.078870824, -12.071478998], [-77.078895622, -12.07159114], [-77.078874494, -12.071595661], [-77.078877249, -12.071607418], [-77.078898378, -12.071602896], [-77.078929605, -12.071743978], [-77.07890664, -12.071736742], [-77.078916742, -12.071787387], [-77.078935115, -12.071770204], [-77.079022368, -12.072159082], [-77.079001239, -12.072164508], [-77.079009505, -12.072202491], [-77.079027876, -12.072237762], [-77.079073805, -12.072283885], [-77.079098606, -12.072325486], [-77.079154632, -12.072557004], [-77.079191378, -12.072538013], [-77.079104126, -12.0721419], [-77.079045333, -12.07215456], [-77.079043496, -12.072149134], [-77.079038903, -12.072150039], [-77.078920424, -12.071617367], [-77.078942471, -12.071612845], [-77.078909407, -12.071470859], [-77.078870824, -12.071478998]]], [[[-77.078452851, -12.071483515], [-77.078745894, -12.071416596], [-77.078763349, -12.07140303], [-77.078767943, -12.071380421], [-77.07874957, -12.07138223], [-77.07874957, -12.071392178], [-77.078741302, -12.071397604], [-77.078679754, -12.071412073], [-77.078671488, -12.07137409], [-77.078440911, -12.071445532], [-77.078452851, -12.071483515]], [[-77.078592484, -12.071431968], [-77.07853461, -12.071445533], [-77.07852818, -12.071430158], [-77.07860259, -12.071403933], [-77.078607182, -12.071421116], [-77.078590647, -12.071424733], [-77.078592484, -12.071431968]]], [[[-77.081646984, -12.069575344], [-77.081655251, -12.06960157], [-77.081821524, -12.069549119], [-77.081869296, -12.069463205], [-77.081843575, -12.069449639], [-77.081803152, -12.06952651], [-77.081646984, -12.069575344]]]]}}]}